{"type": "FeatureCollection", "columns": {"ADM0_CODE": "Integer", "ADM0_NAME": "String", "ADM1_CODE": "Integer", "ADM1_NAME": "String", "ADM2_CODE": "Integer", "ADM2_NAME": "String", "DISP_AREA": "String", "EXP2_YEAR": "Integer", "STATUS": "String", "STR2_YEAR": "Integer", "Shape_Area": "Float", "Shape_Leng": "Float", "system:index": "String"}, "version": 1701682634012831, "id": "FAO/GAUL/2015/level2", "properties": {"system:asset_size": 316969462}, "features": [{"type": "Feature", "geometry": {"type": "Polygon", "coordinates": [[[7.098153120949447, 4.805434975726211], [7.0975779316036505, 4.801082915148086], [7.096846573820795, 4.798790879230526], [7.0965522922313315, 4.7948803141901], [7.096677181106479, 4.788196096155198], [7.098251244395742, 4.785632074657107], [7.100971250999725, 4.782822848182066], [7.104141707634686, 4.779081716559073], [7.106139364084167, 4.774207856412435], [7.104877415714395, 4.772584748483528], [7.109764631892555, 4.770230359736621], [7.111115698987978, 4.76813458544915], [7.117322779408875, 4.766877116909296], [7.12072958880784, 4.763363372663673], [7.123021564127173, 4.762632079100216], [7.126000189981636, 4.761200710804589], [7.130084773035755, 4.756982356772915], [7.132323176584794, 4.752799762814303], [7.132265258272663, 4.749343923554941], [7.132916246559066, 4.746797819098519], [7.133063467404139, 4.7414958970645396], [7.133277480427538, 4.740568402629175], [7.139185742772631, 4.735168471317347], [7.138918223494919, 4.7328720511924764], [7.140733119594556, 4.730767294658927], [7.1427575070148555, 4.727735106294079], [7.145040541989944, 4.726085279907555], [7.147537631378051, 4.72373981171346], [7.151421538725692, 4.7213675666122565], [7.159224958865852, 4.718932904207778], [7.161485706896319, 4.716128131003508], [7.1662034672752, 4.708213162400728], [7.170078428832412, 4.705381670338229], [7.174421607796673, 4.702777533805488], [7.177632132337441, 4.701800995205537], [7.178550745165361, 4.701551321126824], [7.179705646939889, 4.701533483076907], [7.184766715508575, 4.700757598263067], [7.1900730298834565, 4.700668393084328], [7.190764212782179, 4.700655003356296], [7.191673878204761, 4.699950460215498], [7.194197703066161, 4.698982821694286], [7.196730503875621, 4.698710872156221], [7.198001339615323, 4.698434380701446], [7.200016848527403, 4.702113136365082], [7.201724679648214, 4.708074931955955], [7.204110304606695, 4.712872968258807], [7.210138973808152, 4.71484391085306], [7.214468786647266, 4.7158471529523105], [7.214593648892643, 4.719146943432154], [7.215396293284271, 4.726045172369395], [7.215984833966626, 4.733870862075925], [7.218218867725332, 4.743738817783868], [7.221112799794367, 4.751524444981389], [7.224296597795791, 4.7627613460390705], [7.223016874218838, 4.769235952012162], [7.215922483780583, 4.772812179526077], [7.211409816258069, 4.779108427865622], [7.20780684173521, 4.784468297928458], [7.208908292167616, 4.795508991500474], [7.212390826650068, 4.8025186897748835], [7.208805729526631, 4.803575508995689], [7.189720780949978, 4.807356824116164], [7.175358015465059, 4.817737664117569], [7.162047556575896, 4.822111974626948], [7.146489777590123, 4.829977883036165], [7.142855613879659, 4.831913122623285], [7.140947157172801, 4.829612204579136], [7.1376785781115135, 4.827364833914469], [7.133054512555525, 4.826517574713304], [7.128403657807515, 4.82429250021543], [7.126049231098687, 4.82134062356028], [7.121830923111069, 4.817260547003882], [7.116007396849449, 4.813902791162457], [7.112257282085069, 4.810050119159003], [7.107838314273817, 4.807820556252459], [7.101345861060014, 4.805858562048717], [7.098153120949447, 4.805434975726211]]]}, "id": "0000000000000000124a", "properties": {"ADM0_CODE": 182, "ADM0_NAME": "Nigeria", "ADM1_CODE": 65708, "ADM1_NAME": "Rivers", "ADM2_CODE": 191387, "ADM2_NAME": "Eleme", "DISP_AREA": "NO", "EXP2_YEAR": 3000, "STATUS": "Member State", "STR2_YEAR": 1999, "Shape_Area": 0.0102130392983, "Shape_Leng": 0.419428326258}}, {"type": "Feature", "geometry": {"type": "Polygon", "coordinates": [[[7.49297979924229, 4.815401058947414], [7.485751529905607, 4.811098035313141], [7.47522361176296, 4.802059421858009], [7.4644772057474436, 4.7937164912780625], [7.448460079835748, 4.787536106769211], [7.433464152516993, 4.787330989153599], [7.4194536132361, 4.791255068094363], [7.4190122231295685, 4.792414366102211], [7.418329930374656, 4.793114499231762], [7.415846260649119, 4.796383008806605], [7.411070574921198, 4.800610219537649], [7.403039693719766, 4.803281191668336], [7.393144969693604, 4.804832996269915], [7.376780074087426, 4.805568733903581], [7.3679599708201815, 4.802264540351213], [7.357057449696588, 4.798532278256638], [7.350288570581669, 4.793805649564782], [7.3414461014935055, 4.788887212189547], [7.328898201513321, 4.78334011251042], [7.319101559823254, 4.776825387776828], [7.3134296463307376, 4.768393250562783], [7.302772324660036, 4.765347671420984], [7.302339843389791, 4.765303088572232], [7.3018047432630935, 4.762600812052392], [7.298692235950964, 4.755738262042917], [7.299771368352175, 4.751114210033047], [7.302473598490873, 4.746922627584341], [7.3022373034817205, 4.746695267087026], [7.302379953420114, 4.741161475866439], [7.304859244101535, 4.737661114886599], [7.308756432095129, 4.73621633683734], [7.311940242125121, 4.733398214108412], [7.316042628419714, 4.7303303604825055], [7.319012422794243, 4.728435180821931], [7.3229007019367796, 4.726299290225463], [7.3233555587180845, 4.7260585385665825], [7.325148157442601, 4.722803335626759], [7.32782808105148, 4.717229508281728], [7.330971669654435, 4.711874142818899], [7.332247009628761, 4.708239979544562], [7.334721787845125, 4.701212434383442], [7.3334242360719015, 4.692477022739161], [7.336121955311923, 4.688053595892698], [7.334378424907555, 4.680018259035381], [7.33448991261152, 4.6726429210174], [7.336715008097958, 4.667769179465892], [7.333410805012017, 4.6629845086099815], [7.3336025480631815, 4.660679138314164], [7.334017265330242, 4.657905643273476], [7.330521376044485, 4.655662672567658], [7.328162512483882, 4.652242525351392], [7.325103502556688, 4.648608373795588], [7.323168293458115, 4.643110309159926], [7.320532958361397, 4.63693442794992], [7.3206934416438685, 4.632787499911793], [7.318722522304745, 4.624984050795495], [7.31560116577805, 4.617434781964754], [7.3122970009209425, 4.6126501685093935], [7.311882333866695, 4.612253342275805], [7.315752822988079, 4.6125922481712225], [7.321059143928553, 4.612503057977391], [7.32426519902968, 4.611067244873396], [7.326985294776181, 4.608026093394962], [7.331092132970376, 4.605190096322475], [7.336572368418632, 4.6018725245543886], [7.340897672689001, 4.5983409163362055], [7.346609789837249, 4.594787012541053], [7.350047741010219, 4.593578619162696], [7.356303899224675, 4.595085802433415], [7.362091746638025, 4.596597454226354], [7.364165236958222, 4.596334351303126], [7.370167198144807, 4.596691112643511], [7.3741001195317315, 4.597319819832151], [7.375250613833206, 4.597065600723661], [7.378474475737543, 4.596784699371875], [7.384249032122312, 4.597145867431223], [7.3890916220020655, 4.597065618141105], [7.393702313494941, 4.596985395937493], [7.399690953408426, 4.596423508211438], [7.40569735752197, 4.596784736399693], [7.406624842152787, 4.597226185367677], [7.408961426668007, 4.599032135672702], [7.4110526739448535, 4.5999194699002155], [7.415449360342143, 4.60076671535669], [7.423306285835654, 4.601551466368505], [7.4282068426129175, 4.601471234582303], [7.429531199152923, 4.601448905790768], [7.434159799275729, 4.602291716119073], [7.4381149698810765, 4.604298333196595], [7.44456728587612, 4.603959426323421], [7.450769944339605, 4.602470072057608], [7.454181108749254, 4.5994155595642985], [7.456664846091129, 4.595919682081448], [7.461262172111551, 4.5949208096783405], [7.466341125609489, 4.595295395902544], [7.471625134538998, 4.593823854339936], [7.479927957811654, 4.593681155923469], [7.483597805391749, 4.59246831581397], [7.490023420361833, 4.590283361512302], [7.492275215484427, 4.587019308467162], [7.4915216632380375, 4.583117548740465], [7.492404552439181, 4.580798849588221], [7.491196095537171, 4.577360859655091], [7.491374488607465, 4.574132455868481], [7.491062383626564, 4.5690669819159275], [7.490273083952043, 4.563091766013208], [7.491633159379504, 4.561455230910238], [7.4915841010550395, 4.558458740286783], [7.49202108476742, 4.55707195069148], [7.495895998587573, 4.554240453703233], [7.502352827396445, 4.554128981863983], [7.506535456264476, 4.555903684491736], [7.509126163317678, 4.559087447220907], [7.511012357684114, 4.561816472400285], [7.512443725446425, 4.564558802800508], [7.515926271446793, 4.5658831660222035], [7.523101019975908, 4.567372519525898], [7.52345326174845, 4.567434900695915], [7.523934818734702, 4.575389985369637], [7.532099488403358, 4.580558069179343], [7.526093025166702, 4.5947334955608605], [7.5255846808805575, 4.607192261935347], [7.5239081297473405, 4.607794235574876], [7.525566915339976, 4.607696107684358], [7.5252681244206245, 4.6150491957871225], [7.525330510139207, 4.6332691114440205], [7.522668466560373, 4.654311588375728], [7.523738659049472, 4.6586012682649915], [7.5268600107298145, 4.671077776451456], [7.530445173722218, 4.69293634004682], [7.536888538831403, 4.705974699194525], [7.538096969034258, 4.723490095366105], [7.531015861953036, 4.742757814642786], [7.527845486462345, 4.760803803249742], [7.520965050435527, 4.774265887362958], [7.5202338238564534, 4.775701669451283], [7.512662241720365, 4.7929004380054785], [7.497496871680048, 4.811615283466342], [7.494139144678533, 4.814424538204887], [7.496377611178979, 4.817425492923021], [7.49297979924229, 4.815401058947414]]]}, "id": "0000000000000000124c", "properties": {"ADM0_CODE": 182, "ADM0_NAME": "Nigeria", "ADM1_CODE": 65708, "ADM1_NAME": "Rivers", "ADM2_CODE": 191388, "ADM2_NAME": "Khana", "DISP_AREA": "NO", "EXP2_YEAR": 3000, "STATUS": "Member State", "STR2_YEAR": 1999, "Shape_Area": 0.0422514328648, "Shape_Leng": 0.935281095963}}, {"type": "Feature", "geometry": {"type": "Polygon", "coordinates": [[[7.212390826650068, 4.8025186897748835], [7.208908292167616, 4.795508991500474], [7.20780684173521, 4.784468297928458], [7.211409816258069, 4.779108427865622], [7.215922483780583, 4.772812179526077], [7.223016874218838, 4.769235952012162], [7.224296597795791, 4.7627613460390705], [7.221112799794367, 4.751524444981389], [7.218218867725332, 4.743738817783868], [7.215984833966626, 4.733870862075925], [7.215396293284271, 4.726045172369395], [7.214593648892643, 4.719146943432154], [7.214468786647266, 4.7158471529523105], [7.214187888569219, 4.7083246816334485], [7.2185131908928994, 4.70479308680594], [7.221215381192749, 4.700828945056712], [7.2248361851130865, 4.6963921069019685], [7.22779259813655, 4.693805812433303], [7.231689789015819, 4.69212918471365], [7.233540352788458, 4.692450296786317], [7.237700686588389, 4.693177122530502], [7.241807543165211, 4.690113693810605], [7.248224153324067, 4.687701340287307], [7.253793571591279, 4.689681197693579], [7.261704032887146, 4.693921771002115], [7.269601096406006, 4.697016379091816], [7.276985337393854, 4.6973508474425145], [7.2804322784942554, 4.696369812694802], [7.286193407524651, 4.696044283430984], [7.296395832177044, 4.69932616827893], [7.30216144875795, 4.699228113621044], [7.310045110878353, 4.701631563373492], [7.318392585913357, 4.704253486791463], [7.322793682100657, 4.705559998984132], [7.332247009628761, 4.708239979544562], [7.330971669654435, 4.711874142818899], [7.32782808105148, 4.717229508281728], [7.325148157442601, 4.722803335626759], [7.3233555587180845, 4.7260585385665825], [7.3229007019367796, 4.726299290225463], [7.319012422794243, 4.728435180821931], [7.316042628419714, 4.7303303604825055], [7.311940242125121, 4.733398214108412], [7.308756432095129, 4.73621633683734], [7.304859244101535, 4.737661114886599], [7.302379953420114, 4.741161475866439], [7.3022373034817205, 4.746695267087026], [7.302473598490873, 4.746922627584341], [7.299771368352175, 4.751114210033047], [7.298692235950964, 4.755738262042917], [7.3018047432630935, 4.762600812052392], [7.302339843389791, 4.765303088572232], [7.293064850842377, 4.764362230629578], [7.28669725893956, 4.769998511218529], [7.280811266656349, 4.777012657166191], [7.273944277680952, 4.7803524946114795], [7.2638310085622315, 4.7825999531125305], [7.250698991257166, 4.783514047732161], [7.240380606382128, 4.787375642713304], [7.224631093708563, 4.797778678957907], [7.217072928042657, 4.801131954226946], [7.212390826650068, 4.8025186897748835]]]}, "id": "0000000000000000124f", "properties": {"ADM0_CODE": 182, "ADM0_NAME": "Nigeria", "ADM1_CODE": 65708, "ADM1_NAME": "Rivers", "ADM2_CODE": 191390, "ADM2_NAME": "Tai", "DISP_AREA": "NO", "EXP2_YEAR": 3000, "STATUS": "Member State", "STR2_YEAR": 1999, "Shape_Area": 0.00825324833909, "Shape_Leng": 0.407101994988}}, {"type": "Feature", "geometry": {"type": "Polygon", "coordinates": [[[7.332247009628761, 4.708239979544562], [7.322793682100657, 4.705559998984132], [7.318392585913357, 4.704253486791463], [7.310045110878353, 4.701631563373492], [7.30216144875795, 4.699228113621044], [7.296395832177044, 4.69932616827893], [7.286193407524651, 4.696044283430984], [7.2804322784942554, 4.696369812694802], [7.276985337393854, 4.6973508474425145], [7.269601096406006, 4.697016379091816], [7.261704032887146, 4.693921771002115], [7.253793571591279, 4.689681197693579], [7.248224153324067, 4.687701340287307], [7.241807543165211, 4.690113693810605], [7.237700686588389, 4.693177122530502], [7.233540352788458, 4.692450296786317], [7.233486872329288, 4.689333378598779], [7.232068832864041, 4.687050285988507], [7.2299284602017435, 4.683170878561918], [7.231752236075745, 4.68198923229136], [7.234516913434047, 4.681712747232215], [7.2370541119210285, 4.681668138958437], [7.238882359364513, 4.680486482485753], [7.24021117970155, 4.677235813381571], [7.240835402689496, 4.672848033913081], [7.239172164874184, 4.669882764045398], [7.238877916018863, 4.665967650612345], [7.236077596803448, 4.664170632373357], [7.2316987570353595, 4.6642464458327515], [7.22799325653827, 4.663390335829824], [7.22428771302784, 4.662529666489258], [7.22196899319365, 4.661878642847133], [7.220528656413957, 4.658213298068755], [7.220412749676264, 4.651074293141245], [7.220305727379523, 4.644394510449526], [7.222343540097083, 4.642053518102635], [7.222334655586786, 4.64171013726271], [7.223480602561768, 4.64111267294556], [7.227832663952529, 4.639195242213933], [7.230311936924321, 4.635699280933506], [7.23165416377567, 4.633139779182092], [7.233897109675531, 4.628957159940279], [7.243765032568027, 4.626023047038054], [7.250190634759662, 4.623842534418391], [7.258002974968944, 4.621867181397731], [7.2642056233246075, 4.620377821612383], [7.27228549313489, 4.620703304338594], [7.281948326212198, 4.618924145382005], [7.286996080253786, 4.617457091822535], [7.29089331180102, 4.615780470219868], [7.295517365481993, 4.6166232503377325], [7.299508316407104, 4.620930745632195], [7.30210791398769, 4.62457387156288], [7.303499172848178, 4.6250107937832885], [7.304359787648389, 4.621309754166573], [7.306642870673307, 4.619887325399029], [7.307039714402168, 4.615735883030877], [7.30676773864485, 4.613203136260509], [7.311365033266869, 4.612204312980695], [7.311882333866695, 4.612253342275805], [7.3122970009209425, 4.6126501685093935], [7.31560116577805, 4.617434781964754], [7.318722522304745, 4.624984050795495], [7.3206934416438685, 4.632787499911793], [7.320532958361397, 4.63693442794992], [7.323168293458115, 4.643110309159926], [7.325103502556688, 4.648608373795588], [7.328162512483882, 4.652242525351392], [7.330521376044485, 4.655662672567658], [7.334017265330242, 4.657905643273476], [7.3336025480631815, 4.660679138314164], [7.333410805012017, 4.6629845086099815], [7.336715008097958, 4.667769179465892], [7.33448991261152, 4.6726429210174], [7.334378424907555, 4.680018259035381], [7.336121955311923, 4.688053595892698], [7.3334242360719015, 4.692477022739161], [7.334721787845125, 4.701212434383442], [7.332247009628761, 4.708239979544562]]]}, "id": "00000000000000001257", "properties": {"ADM0_CODE": 182, "ADM0_NAME": "Nigeria", "ADM1_CODE": 65708, "ADM1_NAME": "Rivers", "ADM2_CODE": 23065, "ADM2_NAME": "Gokana", "DISP_AREA": "NO", "EXP2_YEAR": 3000, "STATUS": "Member State", "STR2_YEAR": 1000, "Shape_Area": 0.00756431119015, "Shape_Leng": 0.39586781185}}]}